[{"OBJECT_NAME":"STARLINK-5593","OBJECT_ID":"2023-028Y","EPOCH":"2026-03-09T21:16:36.092640","MEAN_MOTION":14.98328248,"ECCENTRICITY":0.00030663,"INCLINATION":69.999,"RA_OF_ASC_NODE":243.7948,"ARG_OF_PERICENTER":268.3436,"MEAN_ANOMALY":91.7372,"EPHEMERIS_TYPE":0,"CLASSIFICATION_TYPE":"U","NORAD_CAT_ID":55763,"ELEMENT_SET_NO":999,"REV_AT_EPOCH":16607,"BSTAR":-3.5436797e-5,"MEAN_MOTION_DOT":-5.16e-6,"MEAN_MOTION_DDOT":0},{"OBJECT_NAME":"UNKNOWN","OBJECT_ID":"","EPOCH":"2026-03-08T11:45:51.038784","MEAN_MOTION":14.85715368,"ECCENTRICITY":0.0087365,"INCLINATION":97.6779,"RA_OF_ASC_NODE":256.4518,"ARG_OF_PERICENTER":23.5839,"MEAN_ANOMALY":6.4538,"EPHEMERIS_TYPE":0,"CLASSIFICATION_TYPE":"U","NORAD_CAT_ID":81845,"ELEMENT_SET_NO":999,"REV_AT_EPOCH":66225,"BSTAR":0.00036382,"MEAN_MOTION_DOT":3.326e-5,"MEAN_MOTION_DDOT":0}]
